OBJECT_NAME,OBJECT_ID,EPOCH,MEAN_MOTION,ECCENTRICITY,INCLINATION,RA_OF_ASC_NODE,ARG_OF_PERICENTER,MEAN_ANOMALY,EPHEMERIS_TYPE,CLASSIFICATION_TYPE,NORAD_CAT_ID,ELEMENT_SET_NO,REV_AT_EPOCH,BSTAR,MEAN_MOTION_DOT,MEAN_MOTION_DDOT
ONEWEB-0132,2020-100W,2026-07-13T23:23:18.921120,13.12441369,.0001835,87.8962,345.3445,98.3553,261.7784,0,U,47278,999,26809,-.92218E-3,-.319E-5,0
ONEWEB-0133,2020-100X,2026-07-13T20:07:56.426592,13.12444286,.0001809,87.8973,345.3506,101.0044,259.1288,0,U,47279,999,26823,-.10479E-2,-.364E-5,0
ONEWEB-0134,2020-100Y,2026-07-13T23:03:48.458592,13.12441116,.0002024,87.8973,345.3234,102.1619,257.9736,0,U,47280,999,26822,.37694E-3,.148E-5,0
ONEWEB-0135,2020-100Z,2026-07-13T22:22:19.902720,13.12443917,.0001957,87.8963,345.3485,104.8147,255.3198,0,U,47281,999,26824,.22529E-3,.94E-6,0
ONEWEB-0136,2020-100AA,2026-07-13T22:49:10.378848,13.12442615,.0002092,87.8966,345.3285,103.5261,256.6101,0,U,47282,999,26817,.99361E-3,.37E-5,0
ONEWEB-0137,2020-100AB,2026-07-13T21:48:09.952992,13.12443340,.0001817,87.8974,345.3482,91.7650,268.3687,0,U,47283,999,26807,-.11852E-2,-.414E-5,0
ONEWEB-0138,2020-100AC,2026-07-13T23:06:15.000768,13.12441274,.0002032,87.8970,345.3420,98.5884,261.5474,0,U,47284,999,26816,.81882E-4,.42E-6,0
ONEWEB-0139,2020-100AD,2026-07-13T22:15:13.398624,13.12443393,.0001913,87.8968,345.3352,96.4407,263.6939,0,U,47285,999,26823,-.51277E-4,-.6E-7,0
ONEWEB-0140,2020-100AE,2026-07-13T22:58:55.867584,13.12441697,.0001724,87.8970,345.3203,99.2484,260.8839,0,U,47286,999,26820,.64079E-3,.243E-5,0
ONEWEB-0141,2020-100AF,2026-07-13T22:14:48.536160,13.12444466,.0001878,87.8970,345.3312,87.1365,272.9978,0,U,47287,999,26818,-.57156E-4,-.8E-7,0
ONEWEB-0142,2020-100AG,2026-07-13T21:58:07.815936,13.12444592,.00022,87.8963,345.3536,89.6300,270.5080,0,U,47288,999,26817,-.10749E-2,-.374E-5,0
ONEWEB-0143,2020-100AH,2026-07-13T22:12:34.286112,13.12444087,.0001851,87.8963,345.3511,94.6450,265.4890,0,U,47289,999,26815,-.20056E-3,-.59E-6,0
ONEWEB-0144,2020-100AJ,2026-07-13T21:31:05.971296,13.12441669,.0002211,87.8973,345.3323,97.6919,262.4461,0,U,47290,999,26807,-.62964E-3,-.214E-5,0
ONEWEB-0145,2020-100AK,2026-07-13T20:49:38.097984,13.12441750,.00018,87.8963,345.3629,90.8210,269.3124,0,U,47291,999,26826,.17897E-2,.657E-5,0
ONEWEB-0146,2020-100AL,2026-07-13T20:44:45.430944,13.12443063,.0001524,87.8966,345.3573,99.3781,260.7520,0,U,47292,999,26817,.11945E-2,.442E-5,0
ONEWEB-0147,2020-100AM,2026-07-13T21:45:43.868736,13.12443091,.0001881,87.8972,345.3310,100.9756,259.1585,0,U,47293,999,26807,-.12874E-2,-.45E-5,0
ONEWEB-0115,2021-025A,2026-07-13T20:06:31.473792,13.13463383,.0001824,87.8980,314.9207,101.8461,258.2873,0,U,48042,999,25709,-.12901E-2,-.458E-5,0
ONEWEB-0152,2021-025B,2026-07-13T20:26:02.685408,13.13473924,.0001831,87.8987,314.9155,101.8148,258.3186,0,U,48043,999,25705,.63693E-3,.245E-5,0
ONEWEB-0153,2021-025C,2026-07-13T19:54:20.357856,13.13469844,.000196,87.8967,314.9221,101.3280,258.8069,0,U,48044,999,25704,-.7101E-3,-.247E-5,0
ONEWEB-0154,2021-025D,2026-07-13T19:49:28.033824,13.13470057,.0001954,87.8986,314.9206,105.9192,254.2152,0,U,48045,999,25700,-.86961E-3,-.305E-5,0
ONEWEB-0116,2021-025E,2026-07-13T20:45:32.541408,13.13469692,.000182,87.8985,314.9101,102.8341,257.2991,0,U,48046,999,25715,.72903E-3,.279E-5,0
ONEWEB-0150,2021-025F,2026-07-13T20:11:24.965088,13.13470384,.0001904,87.8987,314.9121,94.1726,265.9621,0,U,48047,999,25704,-.82E-4,-.17E-6,0
ONEWEB-0107,2021-025G,2026-07-13T20:13:51.496032,13.13472467,.0002127,87.8984,314.9082,97.9073,262.2297,0,U,48048,999,25702,-.40841E-4,-.2E-7,0
ONEWEB-0101,2021-025H,2026-07-13T21:09:55.029888,13.13470317,.0002063,87.8974,314.9134,103.6879,256.4480,0,U,48049,999,25700,-.18447E-3,-.55E-6,0
ONEWEB-0113,2021-025J,2026-07-13T21:32:37.869792,13.13890942,.0001868,87.8977,314.8179,94.8611,265.2732,0,U,48050,999,25711,-.87831E-3,-.31E-5,0
ONEWEB-0112,2021-025K,2026-07-13T20:21:09.991584,13.13469967,.0002171,87.8984,314.9052,103.2603,256.8768,0,U,48051,999,25709,.44015E-3,.173E-5,0
ONEWEB-0156,2021-025L,2026-07-13T18:43:39.158976,13.13472136,.0002005,87.8983,314.9283,97.2118,262.9239,0,U,48052,999,25706,.6786E-3,.261E-5,0
ONEWEB-0161,2021-025M,2026-07-13T19:56:46.658976,13.13469526,.000208,87.8983,314.9195,96.7137,263.4229,0,U,48053,999,25700,-.70076E-3,-.243E-5,0
ONEWEB-0158,2021-025N,2026-07-13T20:47:59.969184,13.13471083,.0001762,87.8986,314.9095,107.6042,252.5280,0,U,48054,999,25713,.70471E-3,.27E-5,0
ONEWEB-0157,2021-025P,2026-07-13T21:24:32.051232,13.13470911,.0002249,87.8974,314.9110,98.9817,261.1567,0,U,48055,999,25707,-.64052E-3,-.221E-5,0
