ONEWEB-0132             
1 47278U 20100W   26194.97452455 -.00000319  00000+0 -92218-3 0  9993
2 47278  87.8962 345.3445 0001835  98.3553 261.7784 13.12441369268092
ONEWEB-0133             
1 47279U 20100X   26194.83884753 -.00000364  00000+0 -10479-2 0  9997
2 47279  87.8973 345.3506 0001809 101.0044 259.1288 13.12444286268238
ONEWEB-0134             
1 47280U 20100Y   26194.96097753  .00000148  00000+0  37694-3 0  9996
2 47280  87.8973 345.3234 0002024 102.1619 257.9736 13.12441116268220
ONEWEB-0135             
1 47281U 20100Z   26194.93217480  .00000094  00000+0  22529-3 0  9996
2 47281  87.8963 345.3485 0001957 104.8147 255.3198 13.12443917268244
ONEWEB-0136             
1 47282U 20100AA  26194.95081457  .00000370  00000+0  99361-3 0  9997
2 47282  87.8966 345.3285 0002092 103.5261 256.6101 13.12442615268174
ONEWEB-0137             
1 47283U 20100AB  26194.90844853 -.00000414  00000+0 -11852-2 0  9999
2 47283  87.8974 345.3482 0001817  91.7650 268.3687 13.12443340268071
ONEWEB-0138             
1 47284U 20100AC  26194.96267362  .00000042  00000+0  81882-4 0  9997
2 47284  87.8970 345.3420 0002032  98.5884 261.5474 13.12441274268167
ONEWEB-0139             
1 47285U 20100AD  26194.92723841 -.00000006  00000+0 -51277-4 0  9990
2 47285  87.8968 345.3352 0001913  96.4407 263.6939 13.12443393268235
ONEWEB-0140             
1 47286U 20100AE  26194.95759106  .00000243  00000+0  64079-3 0  9991
2 47286  87.8970 345.3203 0001724  99.2484 260.8839 13.12441697268200
ONEWEB-0141             
1 47287U 20100AF  26194.92695065 -.00000008  00000+0 -57156-4 0  9992
2 47287  87.8970 345.3312 0001878  87.1365 272.9978 13.12444466268188
ONEWEB-0142             
1 47288U 20100AG  26194.91536824 -.00000374  00000+0 -10749-2 0  9990
2 47288  87.8963 345.3536 0002200  89.6300 270.5080 13.12444592268172
ONEWEB-0143             
1 47289U 20100AH  26194.92539683 -.00000059  00000+0 -20056-3 0  9991
2 47289  87.8963 345.3511 0001851  94.6450 265.4890 13.12444087268158
ONEWEB-0144             
1 47290U 20100AJ  26194.89659689 -.00000214  00000+0 -62964-3 0  9995
2 47290  87.8973 345.3323 0002211  97.6919 262.4461 13.12441669268071
ONEWEB-0145             
1 47291U 20100AK  26194.86780206  .00000657  00000+0  17897-2 0  9996
2 47291  87.8963 345.3629 0001800  90.8210 269.3124 13.12441750268266
ONEWEB-0146             
1 47292U 20100AL  26194.86441471  .00000442  00000+0  11945-2 0  9995
2 47292  87.8966 345.3573 0001524  99.3781 260.7520 13.12443063268172
ONEWEB-0147             
1 47293U 20100AM  26194.90675774 -.00000450  00000+0 -12874-2 0  9999
2 47293  87.8972 345.3310 0001881 100.9756 259.1585 13.12443091268079
ONEWEB-0115             
1 48042U 21025A   26194.83786428 -.00000458  00000+0 -12901-2 0  9999
2 48042  87.8980 314.9207 0001824 101.8461 258.2873 13.13463383257095
ONEWEB-0152             
1 48043U 21025B   26194.85141997  .00000245  00000+0  63693-3 0  9995
2 48043  87.8987 314.9155 0001831 101.8148 258.3186 13.13473924257051
ONEWEB-0153             
1 48044U 21025C   26194.82940229 -.00000247  00000+0 -71010-3 0  9994
2 48044  87.8967 314.9221 0001960 101.3280 258.8069 13.13469844257049
ONEWEB-0154             
1 48045U 21025D   26194.82601891 -.00000305  00000+0 -86961-3 0  9990
2 48045  87.8986 314.9206 0001954 105.9192 254.2152 13.13470057257006
ONEWEB-0116             
1 48046U 21025E   26194.86495997  .00000279  00000+0  72903-3 0  9992
2 48046  87.8985 314.9101 0001820 102.8341 257.2991 13.13469692257157
ONEWEB-0150             
1 48047U 21025F   26194.84126117 -.00000017  00000+0 -82000-4 0  9998
2 48047  87.8987 314.9121 0001904  94.1726 265.9621 13.13470384257049
ONEWEB-0107             
1 48048U 21025G   26194.84295713 -.00000002  00000+0 -40841-4 0  9999
2 48048  87.8984 314.9082 0002127  97.9073 262.2297 13.13472467257028
ONEWEB-0101             
1 48049U 21025H   26194.88188692 -.00000055  00000+0 -18447-3 0  9995
2 48049  87.8974 314.9134 0002063 103.6879 256.4480 13.13470317257003
ONEWEB-0113             
1 48050U 21025J   26194.89766053 -.00000310  00000+0 -87831-3 0  9998
2 48050  87.8977 314.8179 0001868  94.8611 265.2732 13.13890942257113
ONEWEB-0112             
1 48051U 21025K   26194.84803231  .00000173  00000+0  44015-3 0  9996
2 48051  87.8984 314.9052 0002171 103.2603 256.8768 13.13469967257098
ONEWEB-0156             
1 48052U 21025L   26194.78031434  .00000261  00000+0  67860-3 0  9999
2 48052  87.8983 314.9283 0002005  97.2118 262.9239 13.13472136257063
ONEWEB-0161             
1 48053U 21025M   26194.83109559 -.00000243  00000+0 -70076-3 0  9995
2 48053  87.8983 314.9195 0002080  96.7137 263.4229 13.13469526257002
ONEWEB-0158             
1 48054U 21025N   26194.86666631  .00000270  00000+0  70471-3 0  9995
2 48054  87.8986 314.9095 0001762 107.6042 252.5280 13.13471083257139
ONEWEB-0157             
1 48055U 21025P   26194.89203763 -.00000221  00000+0 -64052-3 0  9998
2 48055  87.8974 314.9110 0002249  98.9817 261.1567 13.13470911257074
